     2.10           NAVIGATION DATA     G (GPS)             RINEX VERSION / TYPE
DAT2RINW 3.10 001   ±èÀÌ´ö              26AUG04 15:30:18    PGM / RUN BY / DATE 
                                                            COMMENT             
     .1583D-07  -.7451D-08  -.5960D-07   .5960D-07          ION ALPHA           
     .1229D+06  -.6554D+05  -.1311D+06  -.6554D+05          ION BETA            
    -.558793544769D-08 -.284217094304D-13    61440     1258 DELTA-UTC: A0,A1,T,W
    13                                                      LEAP SECONDS        
                                                            END OF HEADER       
 1 04  2 13  8  0  0.0  .329838134348D-03  .216004991671D-11  .000000000000D+00
     .188000000000D+03 -.475312500000D+02  .412517175974D-08  .259426379947D+01
    -.249408185482D-05  .544091325719D-02  .872649252415D-05  .515360226822D+04
     .460800000000D+06  .875443220139D-07 -.138778535993D+01 -.521540641785D-07
     .977575017158D+00  .222156250000D+03 -.168840453317D+01 -.774032216100D-08
     .221437798653D-09  .100000000000D+01  .125700000000D+04  .000000000000D+00
     .340000000000D+01  .000000000000D+00 -.325962901115D-08  .444000000000D+03
     .454338000000D+06  .400000000000D+01
 2 04  2 13  4  0  0.0 -.274314545095D-03 -.682121026330D-11  .000000000000D+00
     .176000000000D+03 -.128437500000D+02  .542772626844D-08 -.697790361861D+00
    -.506639480591D-06  .233642094536D-01  .902265310287D-05  .515358632660D+04
     .446400000000D+06 -.290572643280D-06  .585454244531D+00  .271946191788D-06
     .932625097819D+00  .200781250000D+03 -.170961611678D+01 -.883465389734D-08
    -.151792037273D-09  .100000000000D+01  .125700000000D+04  .000000000000D+00
     .340000000000D+01  .000000000000D+00 -.186264514923D-08  .176000000000D+03
     .442158000000D+06  .400000000000D+01
 3 04  2 13  4  0  0.0  .854977406561D-04  .306954461848D-11  .000000000000D+00
     .143000000000D+03  .651875000000D+02  .512949949183D-08  .241216962580D+01
     .344403088093D-05  .544195424300D-02  .907108187675D-05  .515367421341D+04
     .446400000000D+06 -.763684511185D-07  .165693283943D+01 -.596046447754D-07
     .928443963841D+00  .187687500000D+03  .549921216643D+00 -.831177437988D-08
     .157149397662D-10  .100000000000D+01  .125700000000D+04  .000000000000D+00
     .340000000000D+01  .000000000000D+00 -.419095158577D-08  .143000000000D+03
     .442158000000D+06  .400000000000D+01
 4 04  2 13  6  0  0.0 -.639259815216D-04 -.852651282912D-11  .000000000000D+00
     .100000000000D+01  .419062500000D+02  .466805172294D-08  .549363294798D+00
     .227987766266D-05  .670905108564D-02  .379420816898D-05  .515358546829D+04
     .453600000000D+06  .191852450371D-06  .280015504794D+01 -.130385160446D-07
     .961384611654D+00  .304125000000D+03 -.946643302579D-01 -.839070679604D-08
     .392873511501D-10  .100000000000D+01  .125700000000D+04  .000000000000D+00
     .240000000000D+01  .000000000000D+00 -.605359673500D-08  .100000000000D+01
     .449598000000D+06  .400000000000D+01
 4 04  2 13  8  0  0.0 -.639879144728D-04 -.852651282912D-11  .000000000000D+00
     .200000000000D+01  .546250000000D+02  .455947546385D-08  .159929322635D+01
     .300258398056D-05  .670986389741D-02  .434927642345D-05  .515358961868D+04
     .460800000000D+06  .316649675369D-07  .280009588022D+01  .912696123123D-07
     .961384778426D+00  .294625000000D+03 -.943601954409D-01 -.827463075836D-08
    -.721458656705D-10  .100000000000D+01  .125700000000D+04  .000000000000D+00
     .240000000000D+01  .000000000000D+00 -.605359673500D-08  .200000000000D+01
     .453618000000D+06  .400000000000D+01
 7 04  2 13  3 59 44.0  .622195191681D-03 -.648014975013D-11  .000000000000D+00
     .790000000000D+02  .902500000000D+02  .472233940840D-08  .252460793674D+01
     .456348061562D-05  .126113650622D-01  .971369445324D-05  .515374337196D+04
     .446384000000D+06  .141561031342D-06  .168112981168D+01 -.117346644402D-06
     .937614479407D+00  .176500000000D+03 -.184887747836D+01 -.793211629713D-08
     .114290478123D-10  .100000000000D+01  .125700000000D+04  .000000000000D+00
     .240000000000D+01  .000000000000D+00 -.186264514923D-08  .790000000000D+02
     .444912000000D+06  .400000000000D+01
 7 04  2 13  5 59 28.0  .622148159891D-03 -.648014975013D-11  .000000000000D+00
     .104000000000D+03  .777500000000D+02  .484448747784D-08 -.271076546631D+01
     .399723649025D-05  .126144386595D-01  .890344381332D-05  .515373770905D+04
     .453568000000D+06  .132247805595D-06  .168107288076D+01 -.577419996262D-07
     .937614568645D+00  .195437500000D+03 -.184888141361D+01 -.792033016950D-08
     .235724096492D-10  .100000000000D+01  .125700000000D+04  .000000000000D+00
     .240000000000D+01  .000000000000D+00 -.186264514923D-08  .104000000000D+03
     .448038000000D+06  .400000000000D+01
 7 04  2 13  5 59 44.0  .622148159891D-03 -.648014975013D-11  .000000000000D+00
     .800000000000D+02  .777500000000D+02  .484448747784D-08 -.270843176672D+01
     .399723649025D-05  .126144378446D-01  .890344381332D-05  .515373771095D+04
     .453584000000D+06  .132247805595D-06  .168107275641D+01 -.577419996262D-07
     .937614562793D+00  .195437500000D+03 -.184888147505D+01 -.792033016950D-08
     .235724096492D-10  .100000000000D+01  .125700000000D+04  .000000000000D+00
     .240000000000D+01  .000000000000D+00 -.186264514923D-08  .800000000000D+02
     .446418000000D+06  .400000000000D+01
 7 04  2 13  7 59 28.0  .622101128101D-03 -.659383658785D-11  .000000000000D+00
     .105000000000D+03  .649062500000D+02  .488913221020D-08 -.166050020467D+01
     .348500907421D-05  .126137397019D-01  .885687768459D-05  .515374079323D+04
     .460768000000D+06  .311061739922D-06  .168101643845D+01  .197440385818D-06
     .937613661635D+00  .197437500000D+03 -.184900363310D+01 -.812712386278D-08
    -.126076676876D-09  .100000000000D+01  .125700000000D+04  .000000000000D+00
     .240000000000D+01  .000000000000D+00 -.186264514923D-08  .105000000000D+03
     .453618000000D+06  .400000000000D+01
 8 04  2 13  4  0  0.0  .367411412299D-03 -.738964445191D-11  .000000000000D+00
     .145000000000D+03 -.250625000000D+02  .471412509029D-08  .522409405157D+00
    -.153854489326D-05  .893992453348D-02  .659003853798D-05  .515366765022D+04
     .446400000000D+06  .558793544769D-07 -.330974821401D+00 -.149011611938D-06
     .964271393751D+00  .253781250000D+03  .238646449767D+01 -.824605805860D-08
     .692886026332D-10  .100000000000D+01  .125700000000D+04  .000000000000D+00
     .340000000000D+01  .000000000000D+00 -.419095158577D-08  .401000000000D+03
     .442158000000D+06  .400000000000D+01
 8 04  2 13  6  0  0.0  .367358326912D-03 -.738964445191D-11  .000000000000D+00
     .146000000000D+03 -.208125000000D+02  .468840966050D-08  .157251000220D+01
    -.107288360596D-05  .894026388414D-02  .607781112194D-05  .515366923332D+04
     .453600000000D+06  .121071934700D-06 -.331033213776D+00  .409781932831D-07
     .964272436812D+00  .257843750000D+03  .238654920647D+01 -.807390776458D-08
     .928610140172D-11  .100000000000D+01  .125700000000D+04  .000000000000D+00
     .340000000000D+01  .000000000000D+00 -.419095158577D-08  .402000000000D+03
     .446418000000D+06  .400000000000D+01
11 04  2 13  4  0  0.0  .961525365710D-04  .250111042988D-11  .000000000000D+00
     .114000000000D+03  .562187500000D+02  .593346127786D-08  .109280651269D+01
     .290386378765D-05  .276109285187D-02  .338256359100D-05  .515369295502D+04
     .446400000000D+06  .614672899246D-07  .267839086539D+01  .447034835815D-07
     .908481238279D+00  .285750000000D+03  .294516993758D-01 -.892644358430D-08
    -.364300881128D-10  .100000000000D+01  .125700000000D+04  .000000000000D+00
     .340000000000D+01  .000000000000D+00 -.116415321827D-07  .370000000000D+03
     .442158000000D+06  .400000000000D+01
11 04  2 13  6  0  0.0  .961706973612D-04  .250111042988D-11  .000000000000D+00
     .109000000000D+03  .587812500000D+02  .582845727237D-08  .214219139169D+01
     .304169952869D-05  .276132603176D-02  .410899519920D-05  .515369706154D+04
     .453600000000D+06 -.204890966415D-07  .267832626731D+01  .117346644402D-06
     .908481194391D+00  .269625000000D+03  .302443186316D-01 -.890072815452D-08
     .353586153412D-10  .100000000000D+01  .125700000000D+04  .000000000000D+00
     .340000000000D+01  .000000000000D+00 -.116415321827D-07  .621000000000D+03
     .446418000000D+06  .400000000000D+01
11 04  2 13  8  0  0.0  .961888581514D-04  .250111042988D-11  .000000000000D+00
     .110000000000D+03  .696562500000D+02  .578916958816D-08 -.309049052443D+01
     .373087823391D-05  .276295351796D-02  .464543700218D-05  .515369356346D+04
     .460800000000D+06 -.558793544769D-07  .267826222515D+01  .186264514923D-07
     .908481930239D+00  .261906250000D+03  .299181464166D-01 -.882501005606D-08
     .789318610472D-10  .100000000000D+01  .125700000000D+04  .000000000000D+00
     .340000000000D+01  .000000000000D+00 -.116415321827D-07  .622000000000D+03
     .453618000000D+06  .400000000000D+01
13 04  2 13  7 59 44.0 -.312114134431D-04  .227373675443D-12  .000000000000D+00
     .620000000000D+02 -.376250000000D+02  .405124023217D-08 -.294169421977D+00
    -.194832682610D-05  .201945996378D-02  .860355794430D-05  .515372159576D+04
     .460784000000D+06  .409781932831D-07 -.140547248570D+01  .931322574615D-08
     .981777474630D+00  .228718750000D+03  .650022086955D+00 -.784068365789D-08
     .233938313166D-09  .100000000000D+01  .125700000000D+04  .000000000000D+00
     .240000000000D+01  .000000000000D+00 -.111758708954D-07  .620000000000D+02
     .456048000000D+06  .400000000000D+01
